ONEWEB-0685             
1 54679U 22166AP  25353.84307766  .00000019  00000+0  15263-4 0  9997
2 54679  87.9224 279.7612 0001897  88.0947 272.0404 13.21834927147720
ONEWEB-0712             
1 54680U 22166AQ  25353.70718345 -.00000022  00000+0 -90135-4 0  9990
2 54680  87.9051 264.5083 0002231  70.1514 289.9857 13.16595923148442
ONEWEB-0714             
1 54681U 22166AR  25353.24366639  .00000075  00000+0  15059-3 0  9992
2 54681  87.9221 279.8750 0001985  78.8485 281.2872 13.21824461147763
ONEWEB-0532             
1 55140U 23004A   25353.59618483  .00000040  00000+0  69551-4 0  9999
2 55140  87.9115  41.5679 0001779 113.8619 246.2699 13.17647554143934
ONEWEB-0533             
1 55141U 23004B   25353.53770080  .00000339  00000+0  90609-3 0  9994
2 55141  87.8934  26.3495 0001928  98.2158 261.9189 13.12448332144498
ONEWEB-0541             
1 55142U 23004C   25353.65598610 -.00000112  00000+0 -35188-3 0  9997
2 55142  87.8858  56.7983 0001632 103.2532 256.8778 13.11413216142417
ONEWEB-0543             
1 55143U 23004D   25353.10889230  .00000029  00000+0  41876-4 0  9996
2 55143  87.9157  11.2572 0001991  87.1887 272.9473 13.18686047145967
ONEWEB-0544             
1 55144U 23004E   25353.48167494  .00000113  00000+0  25440-3 0  9991
2 55144  87.9164  11.1739 0001660  84.6068 275.5254 13.18685169146013
