<?xml version="1.0" encoding="UTF-8"?>
<ndm xmlns:xsi="http://www.w3.org/2001/XMLSchema-instance" xsi:noNamespaceSchemaLocation="https://sanaregistry.org/r/ndmxml_unqualified/ndmxml-2.0.0-master-2.0.xsd">
<omm id="CCSDS_OMM_VERS" version="2.0">
<header><CREATION_DATE/><ORIGINATOR/></header><body><segment><metadata><OBJECT_NAME>ONEWEB-0685</OBJECT_NAME><OBJECT_ID>2022-166AP</OBJECT_ID><CENTER_NAME>EARTH</CENTER_NAME><REF_FRAME>TEME</REF_FRAME><TIME_SYSTEM>UTC</TIME_SYSTEM><MEAN_ELEMENT_THEORY>SGP4</MEAN_ELEMENT_THEORY></metadata><data><meanElements><EPOCH>2025-12-19T20:14:01.909824</EPOCH><MEAN_MOTION>13.21834927</MEAN_MOTION><ECCENTRICITY>.0001897</ECCENTRICITY><INCLINATION>87.9224</INCLINATION><RA_OF_ASC_NODE>279.7612</RA_OF_ASC_NODE><ARG_OF_PERICENTER>88.0947</ARG_OF_PERICENTER><MEAN_ANOMALY>272.0404</MEAN_ANOMALY></meanElements><tleParameters><EPHEMERIS_TYPE>0</EPHEMERIS_TYPE><CLASSIFICATION_TYPE>U</CLASSIFICATION_TYPE><NORAD_CAT_ID>54679</NORAD_CAT_ID><ELEMENT_SET_NO>999</ELEMENT_SET_NO><REV_AT_EPOCH>14772</REV_AT_EPOCH><BSTAR>.15263E-4</BSTAR><MEAN_MOTION_DOT>.19E-6</MEAN_MOTION_DOT><MEAN_MOTION_DDOT>0</MEAN_MOTION_DDOT></tleParameters></data></segment></body></omm>
<omm id="CCSDS_OMM_VERS" version="2.0">
<header><CREATION_DATE/><ORIGINATOR/></header><body><segment><metadata><OBJECT_NAME>ONEWEB-0712</OBJECT_NAME><OBJECT_ID>2022-166AQ</OBJECT_ID><CENTER_NAME>EARTH</CENTER_NAME><REF_FRAME>TEME</REF_FRAME><TIME_SYSTEM>UTC</TIME_SYSTEM><MEAN_ELEMENT_THEORY>SGP4</MEAN_ELEMENT_THEORY></metadata><data><meanElements><EPOCH>2025-12-19T16:58:20.650080</EPOCH><MEAN_MOTION>13.16595923</MEAN_MOTION><ECCENTRICITY>.0002231</ECCENTRICITY><INCLINATION>87.9051</INCLINATION><RA_OF_ASC_NODE>264.5083</RA_OF_ASC_NODE><ARG_OF_PERICENTER>70.1514</ARG_OF_PERICENTER><MEAN_ANOMALY>289.9857</MEAN_ANOMALY></meanElements><tleParameters><EPHEMERIS_TYPE>0</EPHEMERIS_TYPE><CLASSIFICATION_TYPE>U</CLASSIFICATION_TYPE><NORAD_CAT_ID>54680</NORAD_CAT_ID><ELEMENT_SET_NO>999</ELEMENT_SET_NO><REV_AT_EPOCH>14844</REV_AT_EPOCH><BSTAR>-.90135E-4</BSTAR><MEAN_MOTION_DOT>-.22E-6</MEAN_MOTION_DOT><MEAN_MOTION_DDOT>0</MEAN_MOTION_DDOT></tleParameters></data></segment></body></omm>
<omm id="CCSDS_OMM_VERS" version="2.0">
<header><CREATION_DATE/><ORIGINATOR/></header><body><segment><metadata><OBJECT_NAME>ONEWEB-0714</OBJECT_NAME><OBJECT_ID>2022-166AR</OBJECT_ID><CENTER_NAME>EARTH</CENTER_NAME><REF_FRAME>TEME</REF_FRAME><TIME_SYSTEM>UTC</TIME_SYSTEM><MEAN_ELEMENT_THEORY>SGP4</MEAN_ELEMENT_THEORY></metadata><data><meanElements><EPOCH>2025-12-19T05:50:52.776096</EPOCH><MEAN_MOTION>13.21824461</MEAN_MOTION><ECCENTRICITY>.0001985</ECCENTRICITY><INCLINATION>87.9221</INCLINATION><RA_OF_ASC_NODE>279.8750</RA_OF_ASC_NODE><ARG_OF_PERICENTER>78.8485</ARG_OF_PERICENTER><MEAN_ANOMALY>281.2872</MEAN_ANOMALY></meanElements><tleParameters><EPHEMERIS_TYPE>0</EPHEMERIS_TYPE><CLASSIFICATION_TYPE>U</CLASSIFICATION_TYPE><NORAD_CAT_ID>54681</NORAD_CAT_ID><ELEMENT_SET_NO>999</ELEMENT_SET_NO><REV_AT_EPOCH>14776</REV_AT_EPOCH><BSTAR>.15059E-3</BSTAR><MEAN_MOTION_DOT>.75E-6</MEAN_MOTION_DOT><MEAN_MOTION_DDOT>0</MEAN_MOTION_DDOT></tleParameters></data></segment></body></omm>
<omm id="CCSDS_OMM_VERS" version="2.0">
<header><CREATION_DATE/><ORIGINATOR/></header><body><segment><metadata><OBJECT_NAME>ONEWEB-0532</OBJECT_NAME><OBJECT_ID>2023-004A</OBJECT_ID><CENTER_NAME>EARTH</CENTER_NAME><REF_FRAME>TEME</REF_FRAME><TIME_SYSTEM>UTC</TIME_SYSTEM><MEAN_ELEMENT_THEORY>SGP4</MEAN_ELEMENT_THEORY></metadata><data><meanElements><EPOCH>2025-12-19T14:18:30.369312</EPOCH><MEAN_MOTION>13.17647554</MEAN_MOTION><ECCENTRICITY>.0001779</ECCENTRICITY><INCLINATION>87.9115</INCLINATION><RA_OF_ASC_NODE>41.5679</RA_OF_ASC_NODE><ARG_OF_PERICENTER>113.8619</ARG_OF_PERICENTER><MEAN_ANOMALY>246.2699</MEAN_ANOMALY></meanElements><tleParameters><EPHEMERIS_TYPE>0</EPHEMERIS_TYPE><CLASSIFICATION_TYPE>U</CLASSIFICATION_TYPE><NORAD_CAT_ID>55140</NORAD_CAT_ID><ELEMENT_SET_NO>999</ELEMENT_SET_NO><REV_AT_EPOCH>14393</REV_AT_EPOCH><BSTAR>.69551E-4</BSTAR><MEAN_MOTION_DOT>.4E-6</MEAN_MOTION_DOT><MEAN_MOTION_DDOT>0</MEAN_MOTION_DDOT></tleParameters></data></segment></body></omm>
<omm id="CCSDS_OMM_VERS" version="2.0">
<header><CREATION_DATE/><ORIGINATOR/></header><body><segment><metadata><OBJECT_NAME>ONEWEB-0533</OBJECT_NAME><OBJECT_ID>2023-004B</OBJECT_ID><CENTER_NAME>EARTH</CENTER_NAME><REF_FRAME>TEME</REF_FRAME><TIME_SYSTEM>UTC</TIME_SYSTEM><MEAN_ELEMENT_THEORY>SGP4</MEAN_ELEMENT_THEORY></metadata><data><meanElements><EPOCH>2025-12-19T12:54:17.349120</EPOCH><MEAN_MOTION>13.12448332</MEAN_MOTION><ECCENTRICITY>.0001928</ECCENTRICITY><INCLINATION>87.8934</INCLINATION><RA_OF_ASC_NODE>26.3495</RA_OF_ASC_NODE><ARG_OF_PERICENTER>98.2158</ARG_OF_PERICENTER><MEAN_ANOMALY>261.9189</MEAN_ANOMALY></meanElements><tleParameters><EPHEMERIS_TYPE>0</EPHEMERIS_TYPE><CLASSIFICATION_TYPE>U</CLASSIFICATION_TYPE><NORAD_CAT_ID>55141</NORAD_CAT_ID><ELEMENT_SET_NO>999</ELEMENT_SET_NO><REV_AT_EPOCH>14449</REV_AT_EPOCH><BSTAR>.90609E-3</BSTAR><MEAN_MOTION_DOT>.339E-5</MEAN_MOTION_DOT><MEAN_MOTION_DDOT>0</MEAN_MOTION_DDOT></tleParameters></data></segment></body></omm>
<omm id="CCSDS_OMM_VERS" version="2.0">
<header><CREATION_DATE/><ORIGINATOR/></header><body><segment><metadata><OBJECT_NAME>ONEWEB-0541</OBJECT_NAME><OBJECT_ID>2023-004C</OBJECT_ID><CENTER_NAME>EARTH</CENTER_NAME><REF_FRAME>TEME</REF_FRAME><TIME_SYSTEM>UTC</TIME_SYSTEM><MEAN_ELEMENT_THEORY>SGP4</MEAN_ELEMENT_THEORY></metadata><data><meanElements><EPOCH>2025-12-19T15:44:37.199040</EPOCH><MEAN_MOTION>13.11413216</MEAN_MOTION><ECCENTRICITY>.0001632</ECCENTRICITY><INCLINATION>87.8858</INCLINATION><RA_OF_ASC_NODE>56.7983</RA_OF_ASC_NODE><ARG_OF_PERICENTER>103.2532</ARG_OF_PERICENTER><MEAN_ANOMALY>256.8778</MEAN_ANOMALY></meanElements><tleParameters><EPHEMERIS_TYPE>0</EPHEMERIS_TYPE><CLASSIFICATION_TYPE>U</CLASSIFICATION_TYPE><NORAD_CAT_ID>55142</NORAD_CAT_ID><ELEMENT_SET_NO>999</ELEMENT_SET_NO><REV_AT_EPOCH>14241</REV_AT_EPOCH><BSTAR>-.35188E-3</BSTAR><MEAN_MOTION_DOT>-.112E-5</MEAN_MOTION_DOT><MEAN_MOTION_DDOT>0</MEAN_MOTION_DDOT></tleParameters></data></segment></body></omm>
<omm id="CCSDS_OMM_VERS" version="2.0">
<header><CREATION_DATE/><ORIGINATOR/></header><body><segment><metadata><OBJECT_NAME>ONEWEB-0543</OBJECT_NAME><OBJECT_ID>2023-004D</OBJECT_ID><CENTER_NAME>EARTH</CENTER_NAME><REF_FRAME>TEME</REF_FRAME><TIME_SYSTEM>UTC</TIME_SYSTEM><MEAN_ELEMENT_THEORY>SGP4</MEAN_ELEMENT_THEORY></metadata><data><meanElements><EPOCH>2025-12-19T02:36:48.294720</EPOCH><MEAN_MOTION>13.18686047</MEAN_MOTION><ECCENTRICITY>.00019911</ECCENTRICITY><INCLINATION>87.9157</INCLINATION><RA_OF_ASC_NODE>11.2572</RA_OF_ASC_NODE><ARG_OF_PERICENTER>87.1887</ARG_OF_PERICENTER><MEAN_ANOMALY>272.9473</MEAN_ANOMALY></meanElements><tleParameters><EPHEMERIS_TYPE>0</EPHEMERIS_TYPE><CLASSIFICATION_TYPE>U</CLASSIFICATION_TYPE><NORAD_CAT_ID>55143</NORAD_CAT_ID><ELEMENT_SET_NO>999</ELEMENT_SET_NO><REV_AT_EPOCH>14596</REV_AT_EPOCH><BSTAR>.41875799E-4</BSTAR><MEAN_MOTION_DOT>.29E-6</MEAN_MOTION_DOT><MEAN_MOTION_DDOT>0</MEAN_MOTION_DDOT></tleParameters></data></segment></body></omm>
<omm id="CCSDS_OMM_VERS" version="2.0">
<header><CREATION_DATE/><ORIGINATOR/></header><body><segment><metadata><OBJECT_NAME>ONEWEB-0544</OBJECT_NAME><OBJECT_ID>2023-004E</OBJECT_ID><CENTER_NAME>EARTH</CENTER_NAME><REF_FRAME>TEME</REF_FRAME><TIME_SYSTEM>UTC</TIME_SYSTEM><MEAN_ELEMENT_THEORY>SGP4</MEAN_ELEMENT_THEORY></metadata><data><meanElements><EPOCH>2025-12-19T11:33:36.714816</EPOCH><MEAN_MOTION>13.18685169</MEAN_MOTION><ECCENTRICITY>.000166</ECCENTRICITY><INCLINATION>87.9164</INCLINATION><RA_OF_ASC_NODE>11.1739</RA_OF_ASC_NODE><ARG_OF_PERICENTER>84.6068</ARG_OF_PERICENTER><MEAN_ANOMALY>275.5254</MEAN_ANOMALY></meanElements><tleParameters><EPHEMERIS_TYPE>0</EPHEMERIS_TYPE><CLASSIFICATION_TYPE>U</CLASSIFICATION_TYPE><NORAD_CAT_ID>55144</NORAD_CAT_ID><ELEMENT_SET_NO>999</ELEMENT_SET_NO><REV_AT_EPOCH>14601</REV_AT_EPOCH><BSTAR>.2544E-3</BSTAR><MEAN_MOTION_DOT>.113E-5</MEAN_MOTION_DOT><MEAN_MOTION_DDOT>0</MEAN_MOTION_DDOT></tleParameters></data></segment></body></omm>

</ndm>
